STARLINK-37933          
1 69532U 26133AA  26193.16668980 -.00019435  00000+0 -54735-3 0  9995
2 69532  53.1586 198.8913 0001370 103.7376 142.4070 15.35418544  5892
STARLINK-37890          
1 69533U 26133AB  26193.05066090  .00013744  00000+0  41710-3 0  9992
2 69533  53.1554 199.3557 0001826 106.3184 253.8019 15.34403888  5940
STARLINK-37407          
1 69534U 26133AC  26193.16668980 -.00025053  00000+0 -75251-3 0  9996
2 69534  53.1586 198.6679 0001291  92.7353 261.0049 15.33567094  5948
STARLINK-37888          
1 69535U 26133AD  26193.16668980 -.00022905  00000+0 -66867-3 0  9993
2 69535  53.1582 198.7179 0001489  69.8271 258.0835 15.34405556  5892
STARLINK-37889          
1 69536U 26133AE  26192.43076950  .00030076  00000+0  54606-3 0  9997
2 69536  53.1560 202.6291 0001859  94.3949 265.7273 15.49343632  5843
2026-134A               
1 69538U 26134A   26193.11595867  .00002743  00000+0  17507-3 0  9998
2 69538  97.7008 263.3181 0015837 180.8362 179.2843 15.09445240  4079
2026-134B               
1 69539U 26134B   26193.04687927  .00002694  00000+0  17132-3 0  9999
2 69539  97.6983 263.2469 0015933 183.4737 176.6384 15.09601386  4055
2026-134C               
1 69540U 26134C   26193.17888082  .00002672  00000+0  16979-3 0  9994
2 69540  97.6989 263.3828 0015398 184.1212 175.9892 15.09634418  4074
2026-134D               
1 69541U 26134D   26193.17785390  .00002643  00000+0  16769-3 0  9998
2 69541  97.7027 263.3973 0016446 184.0818 176.0279 15.09692052  4075
2026-134E               
1 69542U 26134E   26193.17746168  .00002638  00000+0  16728-3 0  9998
2 69542  97.7045 263.4041 0016154 184.7172 175.3907 15.09713698  4079
2026-134F               
1 69543U 26134F   26193.04408765  .00002592  00000+0  16431-3 0  9993
2 69543  97.6998 263.2563 0015438 186.7755 173.3267 15.09758191  4058
2026-134G               
1 69544U 26134G   26193.17513935  .00002829  00000+0  17851-3 0  9994
2 69544  97.7042 263.4062 0015907 187.2857 172.8143 15.09843955  4078
2026-134H               
1 69545U 26134H   26193.04141602  .00002657  00000+0  16762-3 0  9998
2 69545  97.7027 263.2697 0015733 189.0269 171.0680 15.09909850  4049
STARLINK-37880          
1 69546U 26135A   26193.16668980 -.00014287  00000+0 -26137-3 0  9997
2 69546  97.2844 221.4313 0000415 106.8942 257.4081 15.49206026  5324
STARLINK-37881          
1 69547U 26135B   26193.16668980 -.02498471  00000+0 -41642-1 0  9997
2 69547  97.2838 221.5236 0001959  77.0550 130.6924 15.55820588  5321
STARLINK-37265          
1 69548U 26135C   26193.16668980 -.02565259  00000+0 -30735-1 0  9998
2 69548  97.2838 221.5785 0001206  82.8025 255.2906 15.64509229  5327
STARLINK-37871          
1 69549U 26135D   26193.16668980 -.01031270  00000+0 -17971-1 0  9996
2 69549  97.2840 221.5154 0001450  86.0960  99.9933 15.53308813  5323
STARLINK-37865          
1 69550U 26135E   26193.16668980 -.02503269  00000+0 -43330-1 0  9999
2 69550  97.2851 221.5255 0001347  86.5956 125.8945 15.54815262  5328
STARLINK-37862          
1 69551U 26135F   26193.16668980 -.00896237  00000+0 -11015-1 0  9993
2 69551  97.2840 221.5594 0001165  85.4306 218.0239 15.62639082  5322
STARLINK-37861          
1 69552U 26135G   26193.16668980 -.02419929  00000+0 -38468-1 0  9996
2 69552  97.2848 221.5481 0001738  76.3590 188.4951 15.56961741  5320
STARLINK-37859          
1 69553U 26135H   26193.16668980 -.02579809  00000+0 -37937-1 0  9991
2 69553  97.2840 221.5537 0002000 103.3077 184.7923 15.59275003  5329
STARLINK-37860          
1 69554U 26135J   26193.16668980 -.02550941  00000+0 -33203-1 0  9990
2 69554  97.2842 221.5870 0001062  87.7692 268.2892 15.62393679  5324
STARLINK-37858          
1 69555U 26135K   26193.16668980 -.02518774  00000+0 -34076-1 0  9998
2 69555  97.2849 221.5780 0001611  99.1487 233.9922 15.61346218  5320
STARLINK-37927          
1 69556U 26135L   26193.16668980 -.02447875  00000+0 -42166-1 0  9991
2 69556  97.2849 221.5460 0001697  89.7731 169.1289 15.54849734  5326
STARLINK-37929          
1 69557U 26135M   26193.16668980 -.00016243  00000+0 -29774-3 0  9993
2 69557  97.2851 221.5043 0001548  87.1947  85.7180 15.49175348  5323
STARLINK-37954          
1 69558U 26135N   26193.16668980 -.00017112  00000+0 -31379-3 0  9994
2 69558  97.2844 221.5090 0000854  75.9556 103.7765 15.49177277  5321
STARLINK-37958          
1 69559U 26135P   26190.35553351  .00052572  00000+0  27487-3 0  9990
2 69559  97.2842 218.6737 0001420 185.9739 174.1513 15.80710505  3761
STARLINK-37950          
1 69560U 26135Q   26193.16668980 -.02884797  00000+0 -38936-1 0  9994
2 69560  97.2839 221.5833 0000824  62.1394 297.9455 15.61312009  5328
STARLINK-37952          
1 69561U 26135R   26193.16668980 -.02422764  00000+0 -42185-1 0  9998
2 69561  97.2843 221.5584 0001773  96.7735 190.5333 15.54514608  5327
STARLINK-37935          
1 69562U 26135S   26193.16668980 -.00006611  00000+0 -12004-3 0  9995
2 69562  97.2846 221.5128 0001799  82.3972 106.9407 15.49177888  5329
