OBJECT_NAME,OBJECT_ID,EPOCH,MEAN_MOTION,ECCENTRICITY,INCLINATION,RA_OF_ASC_NODE,ARG_OF_PERICENTER,MEAN_ANOMALY,EPHEMERIS_TYPE,CLASSIFICATION_TYPE,NORAD_CAT_ID,ELEMENT_SET_NO,REV_AT_EPOCH,BSTAR,MEAN_MOTION_DOT,MEAN_MOTION_DDOT
STARLINK-37933,2026-133AA,2026-07-12T04:00:01.998720,15.35418544,.000137,53.1586,198.8913,103.7376,142.4070,0,U,69532,999,589,-.54735E-3,-.19435E-3,0
STARLINK-37890,2026-133AB,2026-07-12T01:12:57.101760,15.34403888,.0001826,53.1554,199.3557,106.3184,253.8019,0,U,69533,999,594,.4171E-3,.13744E-3,0
STARLINK-37407,2026-133AC,2026-07-12T04:00:01.998720,15.33567094,.0001291,53.1586,198.6679,92.7353,261.0049,0,U,69534,999,594,-.75251E-3,-.25053E-3,0
STARLINK-37888,2026-133AD,2026-07-12T04:00:01.998720,15.34405556,.0001489,53.1582,198.7179,69.8271,258.0835,0,U,69535,999,589,-.66867E-3,-.22905E-3,0
STARLINK-37889,2026-133AE,2026-07-11T10:20:18.484800,15.49343632,.0001859,53.1560,202.6291,94.3949,265.7273,0,U,69536,999,584,.54605988E-3,.30076E-3,0
2026-134A,2026-134A,2026-07-12T02:46:58.829088,15.09445240,.0015837,97.7008,263.3181,180.8362,179.2843,0,U,69538,999,407,.17507E-3,.2743E-4,0
2026-134B,2026-134B,2026-07-12T01:07:30.368928,15.09601386,.0015933,97.6983,263.2469,183.4737,176.6384,0,U,69539,999,405,.17132E-3,.2694E-4,0
2026-134C,2026-134C,2026-07-12T04:17:35.302848,15.09634418,.0015398,97.6989,263.3828,184.1212,175.9892,0,U,69540,999,407,.16979E-3,.2672E-4,0
2026-134D,2026-134D,2026-07-12T04:16:06.576960,15.09692052,.0016446,97.7027,263.3973,184.0818,176.0279,0,U,69541,999,407,.16769E-3,.2643E-4,0
2026-134E,2026-134E,2026-07-12T04:15:32.689152,15.09713698,.0016154,97.7045,263.4041,184.7172,175.3907,0,U,69542,999,407,.16728E-3,.2638E-4,0
2026-134F,2026-134F,2026-07-12T01:03:29.172960,15.09758191,.0015438,97.6998,263.2563,186.7755,173.3267,0,U,69543,999,405,.16431E-3,.2592E-4,0
2026-134G,2026-134G,2026-07-12T04:12:12.039840,15.09843955,.0015907,97.7042,263.4062,187.2857,172.8143,0,U,69544,999,407,.17851E-3,.2829E-4,0
2026-134H,2026-134H,2026-07-12T00:59:38.344128,15.09909850,.0015733,97.7027,263.2697,189.0269,171.0680,0,U,69545,999,404,.16762E-3,.2657E-4,0
STARLINK-37880,2026-135A,2026-07-12T04:00:01.998720,15.49206026,.0000415,97.2844,221.4313,106.8942,257.4081,0,U,69546,999,532,-.26137E-3,-.14287E-3,0
STARLINK-37881,2026-135B,2026-07-12T04:00:01.998720,15.55820588,.0001959,97.2838,221.5236,77.0550,130.6924,0,U,69547,999,532,-.41642E-1,-.2498471E-1,0
STARLINK-37265,2026-135C,2026-07-12T04:00:01.998720,15.64509229,.0001206,97.2838,221.5785,82.8025,255.2906,0,U,69548,999,532,-.30735E-1,-.2565259E-1,0
STARLINK-37871,2026-135D,2026-07-12T04:00:01.998720,15.53308813,.000145,97.2840,221.5154,86.0960,99.9933,0,U,69549,999,532,-.17971E-1,-.103127E-1,0
STARLINK-37865,2026-135E,2026-07-12T04:00:01.998720,15.54815262,.0001347,97.2851,221.5255,86.5956,125.8945,0,U,69550,999,532,-.4333E-1,-.2503269E-1,0
STARLINK-37862,2026-135F,2026-07-12T04:00:01.998720,15.62639082,.0001165,97.2840,221.5594,85.4306,218.0239,0,U,69551,999,532,-.11015E-1,-.896237E-2,0
STARLINK-37861,2026-135G,2026-07-12T04:00:01.998720,15.56961741,.0001738,97.2848,221.5481,76.3590,188.4951,0,U,69552,999,532,-.38468E-1,-.2419929E-1,0
STARLINK-37859,2026-135H,2026-07-12T04:00:01.998720,15.59275003,.0002,97.2840,221.5537,103.3077,184.7923,0,U,69553,999,532,-.37937E-1,-.2579809E-1,0
STARLINK-37860,2026-135J,2026-07-12T04:00:01.998720,15.62393679,.0001062,97.2842,221.5870,87.7692,268.2892,0,U,69554,999,532,-.33203E-1,-.2550941E-1,0
STARLINK-37858,2026-135K,2026-07-12T04:00:01.998720,15.61346218,.0001611,97.2849,221.5780,99.1487,233.9922,0,U,69555,999,532,-.34076E-1,-.2518774E-1,0
STARLINK-37927,2026-135L,2026-07-12T04:00:01.998720,15.54849734,.0001697,97.2849,221.5460,89.7731,169.1289,0,U,69556,999,532,-.42166E-1,-.2447875E-1,0
STARLINK-37929,2026-135M,2026-07-12T04:00:01.998720,15.49175348,.0001548,97.2851,221.5043,87.1947,85.7180,0,U,69557,999,532,-.29774E-3,-.16243E-3,0
STARLINK-37954,2026-135N,2026-07-12T04:00:01.998720,15.49177277,.0000854,97.2844,221.5090,75.9556,103.7765,0,U,69558,999,532,-.31379E-3,-.17112E-3,0
STARLINK-37958,2026-135P,2026-07-09T08:31:58.095264,15.80710505,.00014208,97.2842,218.6737,185.9739,174.1513,0,U,69559,999,376,.27486559E-3,.52572E-3,0
STARLINK-37950,2026-135Q,2026-07-12T04:00:01.998720,15.61312009,.0000824,97.2839,221.5833,62.1394,297.9455,0,U,69560,999,532,-.38936E-1,-.2884797E-1,0
STARLINK-37952,2026-135R,2026-07-12T04:00:01.998720,15.54514608,.0001773,97.2843,221.5584,96.7735,190.5333,0,U,69561,999,532,-.42185E-1,-.2422764E-1,0
STARLINK-37935,2026-135S,2026-07-12T04:00:01.998720,15.49177888,.0001799,97.2846,221.5128,82.3972,106.9407,0,U,69562,999,532,-.12004E-3,-.6611E-4,0
